ATLAS CENTAUR 2         
1 00694U 63047A   26189.55420894  .00000924  00000+0  10238-3 0  9993
2 00694  30.3514 239.9007 0545736  65.9521 299.7203 14.12556976148725
THOR AGENA D R/B        
1 00733U 64002A   26189.99520425  .00000105  00000+0  54776-4 0  9995
2 00733  99.1153 209.9034 0031750 265.2211  94.5346 14.34074380255686
SL-3 R/B                
1 00877U 64053B   26189.74886731  .00000105  00000+0  44505-4 0  9997
2 00877  65.0780 336.2903 0080467 254.3537 104.8674 14.61437324284481
SL-8 R/B                
1 02802U 67045B   26190.22968813  .00000190  00000+0  59973-4 0  9997
2 02802  74.0113 121.0906 0063013  99.4220 261.4069 14.45693458106585
SL-8 R/B                
1 03230U 68040B   26190.13577306  .00002017  00000+0  14843-3 0  9998
2 03230  74.0307  65.3998 0025396 214.8009 145.1520 15.03923264108260
OAO 2                   
1 03597U 68110A   26190.33679000  .00000132  00000+0  40770-4 0  9993
2 03597  34.9942 306.0056 0004819  92.3113 267.8129 14.47360558 36735
ISIS 1                  
1 03669U 69009A   26190.23179760  .00000062  00000+0  38806-4 0  9997
2 03669  88.4447 141.9785 1707027 203.6942 147.5512 11.30436116362266
SERT 2                  
1 04327U 70009A   26190.29099359 -.00000021  00000+0  27779-4 0  9995
2 04327  99.2841 126.8180 0004304 205.2504 308.8579 13.58740705796402
SL-3 R/B                
1 05118U 71028B   26190.28748275  .00047586  00000+0  36114-3 0  9991
2 05118  81.2318 260.6426 0014461 202.4706 157.5922 15.71989700  7716
ASTEX 1                 
1 05560U 71089A   26189.93555354  .00000255  00000+0  64828-4 0  9999
2 05560  92.7002 190.8599 0017069  41.9260 318.3250 14.50868463879881
SL-8 R/B                
1 05730U 71119B   26190.32445870  .00004863  00000+0  24955-3 0  9993
2 05730  73.8883 307.9604 0543024 249.4779 104.7318 14.39685634672988
OAO 3 (COPERNICUS)      
1 06153U 72065A   26189.70054352  .00000218  00000+0  49096-4 0  9999
2 06153  35.0069 327.8235 0005945  67.6614 309.5384 14.60072701863897
ATLAS CENTAUR R/B       
1 06155U 72065B   26189.82771208  .00000589  00000+0  82962-4 0  9990
2 06155  35.0026 315.6723 0034138 309.5820  50.1868 14.77960004859196
SL-8 R/B                
1 08459U 75112B   26190.29899706  .00000157  00000+0  60069-4 0  9997
2 08459  74.0601 155.1949 0016409 219.0645 140.9325 14.38256023649352
SL-3 R/B                
1 10114U 77057B   26190.25841282  .00008343  00000+0  15960-3 0  9994
2 10114  97.5851   7.8764 0006577 191.2701 168.8403 15.48328167687121
SEASAT 1                
1 10967U 78064A   26189.75078692  .00000112  00000+0  69760-4 0  9993
2 10967 108.0184  19.5561 0001227 247.9997 112.1018 14.46257651524010
SL-14 R/B               
1 11267U 79011B   26189.90451260  .00000363  00000+0  33232-4 0  9996
2 11267  82.5249 341.5424 0016365  17.9564 342.2230 14.92034401546857
SL-8 R/B                
1 11574U 79089B   26189.49742223  .00000149  00000+0  52877-4 0  9996
2 11574  74.0672 227.4086 0015729   4.0039 356.1241 14.42413227453526
SL-14 R/B               
1 11672U 80005B   26190.26590760  .00000384  00000+0  36089-4 0  9997
2 11672  82.5133 191.8959 0017176 115.5210 244.7787 14.91046808494603
SL-8 R/B                
1 12139U 81003B   26189.95535784  .00013188  00000+0  31422-3 0  9995
2 12139  82.9375 177.5373 0250220 115.3264 247.4115 15.14914083333018
SL-3 R/B                
1 12465U 81046B   26190.28255011  .00009420  00000+0  20034-3 0  9995
2 12465  81.2303 143.4429 0016117 319.5991  40.4055 15.44687411457181
SL-3 R/B                
1 12904U 81103B   26190.26986081  .00002996  00000+0  12820-3 0  9998
2 12904  81.1580  70.6866 0011701 233.2462 126.7696 15.22461757991721
SL-3 R/B                
1 13068U 82013B   26190.16876772  .00002385  00000+0  99809-4 0  9990
2 13068  81.1735  18.2515 0022750 127.8632 232.4664 15.22933840422835
SL-3 R/B                
1 13154U 82039B   26190.22484287  .00002453  00000+0  14557-3 0  9999
2 13154  81.1502  75.6274 0027771 279.2368  80.5717 15.10675591399981
SL-3 R/B                
1 13403U 82079B   26190.28116148  .00003583  00000+0  13719-3 0  9998
2 13403  81.1452  49.3493 0024919 112.6690 247.7183 15.25978098396235
SL-14 R/B               
1 13553U 82092B   26189.93677943  .00000274  00000+0  27997-4 0  9992
2 13553  82.5668  27.9485 0018766 258.0486 223.8059 14.86762026346947
SL-3 R/B                
1 13819U 83010B   26190.01528407  .00009944  00000+0  17749-3 0  9995
2 13819  81.1004 213.0693 0013798 346.5716  13.5161 15.49797748376714
SL-3 R/B                
1 14208U 83075B   26190.28130377  .00007489  00000+0  18295-3 0  9992
2 14208  97.6109 199.6939 0021710 149.5945 210.6565 15.40902274348861
COSMOS 1536             
1 14699U 84013A   26189.94445942  .00003851  00000+0  15136-3 0  9997
2 14699  82.5451 347.1697 0013352 210.8421 149.2034 15.25294388291096
SL-14 R/B               
1 14820U 84027B   26190.30025630  .00000307  00000+0  32279-4 0  9999
2 14820  82.5429 130.9812 0016453 292.9894  66.9587 14.86076598265696
