OBJECT_NAME,OBJECT_ID,EPOCH,MEAN_MOTION,ECCENTRICITY,INCLINATION,RA_OF_ASC_NODE,ARG_OF_PERICENTER,MEAN_ANOMALY,EPHEMERIS_TYPE,CLASSIFICATION_TYPE,NORAD_CAT_ID,ELEMENT_SET_NO,REV_AT_EPOCH,BSTAR,MEAN_MOTION_DOT,MEAN_MOTION_DDOT
ATLAS CENTAUR 2,1963-047A,2026-07-08T13:18:03.652416,14.12556976,.05457366,30.3514,239.9007,65.9521,299.7203,0,U,694,999,14872,.1023788E-3,.924E-5,0
THOR AGENA D R/B,1964-002A,2026-07-08T23:53:05.647200,14.34074380,.00317506,99.1153,209.9034,265.2211,94.5346,0,U,733,999,25568,.54775802E-4,.105E-5,0
SL-3 R/B,1964-053B,2026-07-08T17:58:22.135584,14.61437324,.0080467,65.0780,336.2903,254.3537,104.8674,0,U,877,999,28448,.4450508E-4,.105E-5,0
SL-8 R/B,1967-045B,2026-07-09T05:30:45.054432,14.45693458,.00630134,74.0113,121.0906,99.4220,261.4069,0,U,2802,999,10658,.59973186E-4,.19E-5,0
SL-8 R/B,1968-040B,2026-07-09T03:15:30.792384,15.03923264,.00253965,74.0307,65.3998,214.8009,145.1520,0,U,3230,999,10826,.14843336E-3,.2017E-4,0
OAO 2,1968-110A,2026-07-09T08:04:58.656000,14.47360558,.00048197,34.9942,306.0056,92.3113,267.8129,0,U,3597,999,3673,.40770022E-4,.132E-5,0
ISIS 1,1969-009A,2026-07-09T05:33:47.312640,11.30436116,.17070279,88.4447,141.9785,203.6942,147.5512,0,U,3669,999,36226,.38806389E-4,.62E-6,0
SERT 2,1970-009A,2026-07-09T06:59:01.846176,13.58740705,.00043044,99.2841,126.8180,205.2504,308.8579,0,U,4327,999,79640,.27779222E-4,-.21E-6,0
SL-3 R/B,1971-028B,2026-07-09T06:53:58.509600,15.71989700,.00144612,81.2318,260.6426,202.4706,157.5922,0,U,5118,999,771,.36114481E-3,.47586E-3,0
ASTEX 1,1971-089A,2026-07-08T22:27:11.825856,14.50868463,.00170697,92.7002,190.8599,41.9260,318.3250,0,U,5560,999,87988,.64827851E-4,.255E-5,0
SL-8 R/B,1971-119B,2026-07-09T07:47:13.231680,14.39685634,.05430241,73.8883,307.9604,249.4779,104.7318,0,U,5730,999,67298,.24954685E-3,.4863E-4,0
OAO 3 (COPERNICUS),1972-065A,2026-07-08T16:48:46.960128,14.60072701,.00059451,35.0069,327.8235,67.6614,309.5384,0,U,6153,999,86389,.49095636E-4,.218E-5,0
ATLAS CENTAUR R/B,1972-065B,2026-07-08T19:51:54.323712,14.77960004,.00341386,35.0026,315.6723,309.5820,50.1868,0,U,6155,999,85919,.82961791E-4,.589E-5,0
SL-8 R/B,1975-112B,2026-07-09T07:10:33.345984,14.38256023,.00164099,74.0601,155.1949,219.0645,140.9325,0,U,8459,999,64935,.60068933E-4,.157E-5,0
SL-3 R/B,1977-057B,2026-07-09T06:12:06.867648,15.48328167,.00065778,97.5851,7.8764,191.2701,168.8403,0,U,10114,999,68712,.15960162E-3,.8343E-4,0
SEASAT 1,1978-064A,2026-07-08T18:01:07.989888,14.46257651,.00012274,108.0184,19.5561,247.9997,112.1018,0,U,10967,999,52401,.69760431E-4,.112E-5,0
SL-14 R/B,1979-011B,2026-07-08T21:42:29.888640,14.92034401,.00163653,82.5249,341.5424,17.9564,342.2230,0,U,11267,999,54685,.33232225E-4,.363E-5,0
SL-8 R/B,1979-089B,2026-07-08T11:56:17.280672,14.42413227,.00157297,74.0672,227.4086,4.0039,356.1241,0,U,11574,999,45352,.52876563E-4,.149E-5,0
SL-14 R/B,1980-005B,2026-07-09T06:22:54.416640,14.91046808,.00171766,82.5133,191.8959,115.5210,244.7787,0,U,11672,999,49460,.36088695E-4,.384E-5,0
SL-8 R/B,1981-003B,2026-07-08T22:55:42.917376,15.14914083,.02502204,82.9375,177.5373,115.3264,247.4115,0,U,12139,999,33301,.31421615E-3,.13188E-3,0
SL-3 R/B,1981-046B,2026-07-09T06:46:52.329504,15.44687411,.00161175,81.2303,143.4429,319.5991,40.4055,0,U,12465,999,45718,.20033674E-3,.942E-4,0
SL-3 R/B,1981-103B,2026-07-09T06:28:35.973984,15.22461757,.00117014,81.1580,70.6866,233.2462,126.7696,0,U,12904,999,99172,.12819733E-3,.2996E-4,0
SL-3 R/B,1982-013B,2026-07-09T04:03:01.531008,15.22933840,.00227508,81.1735,18.2515,127.8632,232.4664,0,U,13068,999,42283,.99808777E-4,.2385E-4,0
SL-3 R/B,1982-039B,2026-07-09T05:23:46.423968,15.10675591,.00277712,81.1502,75.6274,279.2368,80.5717,0,U,13154,999,39998,.14557485E-3,.2453E-4,0
SL-3 R/B,1982-079B,2026-07-09T06:44:52.351872,15.25978098,.00249193,81.1452,49.3493,112.6690,247.7183,0,U,13403,999,39623,.13718784E-3,.3583E-4,0
SL-14 R/B,1982-092B,2026-07-08T22:28:57.742752,14.86762026,.0018766,82.5668,27.9485,258.0486,223.8059,0,U,13553,999,34694,.27996931E-4,.274E-5,0
SL-3 R/B,1983-010B,2026-07-09T00:22:00.543648,15.49797748,.00137982,81.1004,213.0693,346.5716,13.5161,0,U,13819,999,37671,.17748532E-3,.9944E-4,0
SL-3 R/B,1983-075B,2026-07-09T06:45:04.645728,15.40902274,.00217106,97.6109,199.6939,149.5945,210.6565,0,U,14208,999,34886,.18295125E-3,.7489E-4,0
COSMOS 1536,1984-013A,2026-07-08T22:40:01.293888,15.25294388,.00133525,82.5451,347.1697,210.8421,149.2034,0,U,14699,999,29109,.15135847E-3,.3851E-4,0
SL-14 R/B,1984-027B,2026-07-09T07:12:22.144320,14.86076598,.00164533,82.5429,130.9812,292.9894,66.9587,0,U,14820,999,26569,.32279255E-4,.307E-5,0
